{
  "type": "FeatureCollection",
  "features": [
    {
      "type": "Feature",
      "properties": {
        "norad_id": 66539,
        "name": "STARLINK-35697",
        "group": "last-30-days",
        "lat": -15.047073696850378,
        "lon": 34.71726462155536,
        "alt_km": 416.208177229023,
        "timestamp": "2025-12-13T03:42:10.036596+00:00",
        "meta_object_name": "STARLINK-35697",
        "meta_object_id": "2025-265Z",
        "meta_epoch": "2025-12-12T06:00:00.999648",
        "meta_mean_motion": 15.50535926,
        "meta_eccentricity": 0.00017767,
        "meta_inclination": 43.0007,
        "meta_ra_of_asc_node": 56.7753,
        "meta_arg_of_pericenter": 239.6128,
        "meta_mean_anomaly": 84.1684,
        "meta_ephemeris_type": 0,
        "meta_classification_type": "U",
        "meta_norad_cat_id": 66539,
        "meta_element_set_no": 999,
        "meta_rev_at_epoch": 491,
        "meta_bstar": 0.0015563663,
        "meta_mean_motion_dot": 0.00091901,
        "meta_mean_motion_ddot": 0,
        "tle_line1": "1 66539U 25265Z   25346.25001157  .00091901  00000+0  15564-2 0  9992",
        "tle_line2": "2 66539  43.0007  56.7753 0001776 239.6128  84.1684 15.50535926  4916"
      },
      "geometry": {
        "type": "Point",
        "coordinates": [
          34.71726462155536,
          -15.047073696850378
        ]
      }
    },
    {
      "type": "Feature",
      "properties": {
        "norad_id": 66540,
        "name": "STARLINK-35818",
        "group": "last-30-days",
        "lat": -13.854203253102852,
        "lon": 36.13314596150416,
        "alt_km": 415.9210431845331,
        "timestamp": "2025-12-13T03:42:10.036607+00:00",
        "meta_object_name": "STARLINK-35818",
        "meta_object_id": "2025-265AA",
        "meta_epoch": "2025-12-12T06:00:00.999648",
        "meta_mean_motion": 15.50473445,
        "meta_eccentricity": 0.00016566,
        "meta_inclination": 43.0005,
        "meta_ra_of_asc_node": 56.7702,
        "meta_arg_of_pericenter": 260.1559,
        "meta_mean_anomaly": 65.655,
        "meta_ephemeris_type": 0,
        "meta_classification_type": "U",
        "meta_norad_cat_id": 66540,
        "meta_element_set_no": 999,
        "meta_rev_at_epoch": 491,
        "meta_bstar": 0.0015478507,
        "meta_mean_motion_dot": 0.00091184,
        "meta_mean_motion_ddot": 0,
        "tle_line1": "1 66540U 25265AA  25346.25001157  .00091184  00000+0  15479-2 0  9992",
        "tle_line2": "2 66540  43.0005  56.7702 0001656 260.1559  65.6550 15.50473445  4917"
      },
      "geometry": {
        "type": "Point",
        "coordinates": [
          36.13314596150416,
          -13.854203253102852
        ]
      }
    },
    {
      "type": "Feature",
      "properties": {
        "norad_id": 66541,
        "name": "STARLINK-35796",
        "group": "last-30-days",
        "lat": -12.598786879107754,
        "lon": 37.59758081616657,
        "alt_km": 416.22842517320896,
        "timestamp": "2025-12-13T03:42:10.036616+00:00",
        "meta_object_name": "STARLINK-35796",
        "meta_object_id": "2025-265AB",
        "meta_epoch": "2025-12-12T06:00:00.999648",
        "meta_mean_motion": 15.50649638,
        "meta_eccentricity": 0.00017523,
        "meta_inclination": 43.0004,
        "meta_ra_of_asc_node": 56.7655,
        "meta_arg_of_pericenter": 262.3381,
        "meta_mean_anomaly": 65.3471,
        "meta_ephemeris_type": 0,
        "meta_classification_type": "U",
        "meta_norad_cat_id": 66541,
        "meta_element_set_no": 999,
        "meta_rev_at_epoch": 491,
        "meta_bstar": -0.0016161334,
        "meta_mean_motion_dot": -0.00094259,
        "meta_mean_motion_ddot": 0,
        "tle_line1": "1 66541U 25265AB  25346.25001157 -.00094259  00000+0 -16161-2 0  9990",
        "tle_line2": "2 66541  43.0004  56.7655 0001752 262.3381  65.3471 15.50649638  4916"
      },
      "geometry": {
        "type": "Point",
        "coordinates": [
          37.59758081616657,
          -12.598786879107754
        ]
      }
    },
    {
      "type": "Feature",
      "properties": {
        "norad_id": 66542,
        "name": "STARLINK-35833",
        "group": "last-30-days",
        "lat": -11.281917599619097,
        "lon": 39.10929411043057,
        "alt_km": 415.89695281938293,
        "timestamp": "2025-12-13T03:42:10.036626+00:00",
        "meta_object_name": "STARLINK-35833",
        "meta_object_id": "2025-265AC",
        "meta_epoch": "2025-12-12T06:00:00.999648",
        "meta_mean_motion": 15.50546353,
        "meta_eccentricity": 0.00014271,
        "meta_inclination": 43.0005,
        "meta_ra_of_asc_node": 56.7612,
        "meta_arg_of_pericenter": 258.3037,
        "meta_mean_anomaly": 71.3367,
        "meta_ephemeris_type": 0,
        "meta_classification_type": "U",
        "meta_norad_cat_id": 66542,
        "meta_element_set_no": 999,
        "meta_rev_at_epoch": 491,
        "meta_bstar": 0.00051955347,
        "meta_mean_motion_dot": 0.0003022,
        "meta_mean_motion_ddot": 0,
        "tle_line1": "1 66542U 25265AC  25346.25001157  .00030220  00000+0  51955-3 0  9998",
        "tle_line2": "2 66542  43.0005  56.7612 0001427 258.3037  71.3367 15.50546353  4914"
      },
      "geometry": {
        "type": "Point",
        "coordinates": [
          39.10929411043057,
          -11.281917599619097
        ]
      }
    },
    {
      "type": "Feature",
      "properties": {
        "norad_id": 66543,
        "name": "STARLINK-35315",
        "group": "last-30-days",
        "lat": -9.996806712340312,
        "lon": 40.5617139897067,
        "alt_km": 415.8374473264912,
        "timestamp": "2025-12-13T03:42:10.036636+00:00",
        "meta_object_name": "STARLINK-35315",
        "meta_object_id": "2025-265AD",
        "meta_epoch": "2025-12-12T06:00:00.999648",
        "meta_mean_motion": 15.50545976,
        "meta_eccentricity": 0.00012668,
        "meta_inclination": 43.0006,
        "meta_ra_of_asc_node": 56.7558,
        "meta_arg_of_pericenter": 255.3665,
        "meta_mean_anomaly": 76.1941,
        "meta_ephemeris_type": 0,
        "meta_classification_type": "U",
        "meta_norad_cat_id": 66543,
        "meta_element_set_no": 999,
        "meta_rev_at_epoch": 480,
        "meta_bstar": 0.00056539465,
        "meta_mean_motion_dot": 0.00032928,
        "meta_mean_motion_ddot": 0,
        "tle_line1": "1 66543U 25265AD  25346.25001157  .00032928  00000+0  56539-3 0  9999",
        "tle_line2": "2 66543  43.0006  56.7558 0001266 255.3665  76.1941 15.50545976  4809"
      },
      "geometry": {
        "type": "Point",
        "coordinates": [
          40.5617139897067,
          -9.996806712340312
        ]
      }
    },
    {
      "type": "Feature",
      "properties": {
        "norad_id": 66544,
        "name": "STARLINK-35728",
        "group": "last-30-days",
        "lat": -8.711882463577213,
        "lon": 41.99587601438201,
        "alt_km": 415.7153974338662,
        "timestamp": "2025-12-13T03:42:10.036648+00:00",
        "meta_object_name": "STARLINK-35728",
        "meta_object_id": "2025-265AE",
        "meta_epoch": "2025-12-12T06:00:00.999648",
        "meta_mean_motion": 15.50556396,
        "meta_eccentricity": 0.00014879,
        "meta_inclination": 43.0004,
        "meta_ra_of_asc_node": 56.751,
        "meta_arg_of_pericenter": 256.3433,
        "meta_mean_anomaly": 77.1239,
        "meta_ephemeris_type": 0,
        "meta_classification_type": "U",
        "meta_norad_cat_id": 66544,
        "meta_element_set_no": 999,
        "meta_rev_at_epoch": 491,
        "meta_bstar": 0.00040443392,
        "meta_mean_motion_dot": 0.00023436,
        "meta_mean_motion_ddot": 0,
        "tle_line1": "1 66544U 25265AE  25346.25001157  .00023436  00000+0  40443-3 0  9991",
        "tle_line2": "2 66544  43.0004  56.7510 0001487 256.3433  77.1239 15.50556396  4916"
      },
      "geometry": {
        "type": "Point",
        "coordinates": [
          41.99587601438201,
          -8.711882463577213
        ]
      }
    },
    {
      "type": "Feature",
      "properties": {
        "norad_id": 66545,
        "name": "SHIJIAN-30A",
        "group": "last-30-days",
        "lat": 7.63256711696085,
        "lon": -23.024112652907384,
        "alt_km": 510.0297336464855,
        "timestamp": "2025-12-13T03:42:10.036659+00:00",
        "meta_object_name": "SHIJIAN-30A",
        "meta_object_id": "2025-266A",
        "meta_epoch": "2025-12-12T13:25:04.277856",
        "meta_mean_motion": 15.15647221,
        "meta_eccentricity": 0.0012783,
        "meta_inclination": 51.7981,
        "meta_ra_of_asc_node": 333.7079,
        "meta_arg_of_pericenter": 355.9307,
        "meta_mean_anomaly": 4.1563,
        "meta_ephemeris_type": 0,
        "meta_classification_type": "U",
        "meta_norad_cat_id": 66545,
        "meta_element_set_no": 999,
        "meta_rev_at_epoch": 355,
        "meta_bstar": 0.00081139,
        "meta_mean_motion_dot": 0.00015376,
        "meta_mean_motion_ddot": 0,
        "tle_line1": "1 66545U 25266A   25346.55907729  .00015376  00000+0  81139-3 0  9997",
        "tle_line2": "2 66545  51.7981 333.7079 0012783 355.9307   4.1563 15.15647221  3550"
      },
      "geometry": {
        "type": "Point",
        "coordinates": [
          -23.024112652907384,
          7.63256711696085
        ]
      }
    }
  ]
}